[{"OBJECT_NAME":"STARLINK-33927","OBJECT_ID":"2025-101H","EPOCH":"2026-03-09T04:32:42.873504","MEAN_MOTION":15.27579595,"ECCENTRICITY":0.00016104,"INCLINATION":43.0025,"RA_OF_ASC_NODE":1.2321,"ARG_OF_PERICENTER":249.4003,"MEAN_ANOMALY":110.6676,"EPHEMERIS_TYPE":0,"CLASSIFICATION_TYPE":"U","NORAD_CAT_ID":64001,"ELEMENT_SET_NO":999,"REV_AT_EPOCH":4697,"BSTAR":0.0013864387,"MEAN_MOTION_DOT":0.00038087,"MEAN_MOTION_DDOT":0},{"OBJECT_NAME":"CZ-2F DEB","OBJECT_ID":"2022-093H","EPOCH":"2026-03-09T22:47:12.359904","MEAN_MOTION":15.21733628,"ECCENTRICITY":0.00740619,"INCLINATION":50.0217,"RA_OF_ASC_NODE":315.3952,"ARG_OF_PERICENTER":34.8084,"MEAN_ANOMALY":325.7683,"EPHEMERIS_TYPE":0,"CLASSIFICATION_TYPE":"U","NORAD_CAT_ID":53364,"ELEMENT_SET_NO":999,"REV_AT_EPOCH":19831,"BSTAR":0.00048014935,"MEAN_MOTION_DOT":0.00011557,"MEAN_MOTION_DDOT":0}]
